DMSP 5D-3 F16 (USA 172) 
1 28054U 03048A   26060.00187704  .00000160  00000+0  10729-3 0  9993
2 28054  99.0000  83.0633 0008211  94.2958 296.6523 14.14458159154196
METEOSAT-9 (MSG-2)      
1 28912U 05049B   26059.60046638  .00000110  00000+0  00000+0 0  9995
2 28912   9.1161  55.2185 0002043 217.4764 147.5513  1.00275082  5914
DMSP 5D-3 F17 (USA 191) 
1 29522U 06050A   26059.98033101  .00000208  00000+0  12975-3 0  9994
2 29522  98.7411  68.7527 0010261  11.6971 348.4439 14.14959241997114
FENGYUN 3A              
1 32958U 08026A   26059.78365615  .00000105  00000+0  70398-4 0  9992
2 32958  98.6786   2.7045 0009836  81.1824 279.0466 14.19543065920026
GOES 14                 
1 35491U 09033A   26059.77440719  .00000113  00000+0  00000+0 0  9991
2 35491   1.4092  84.4718 0002073 291.3069 265.3543  1.00122297  5506
DMSP 5D-3 F18 (USA 210) 
1 35951U 09057A   26059.94318622  .00000290  00000+0  17322-3 0  9999
2 35951  98.8948  41.0027 0010654 193.4410 166.6481 14.14829304844287
EWS-G2 (GOES 15)        
1 36411U 10008A   26059.96055792  .00000003  00000+0  00000+0 0  9990
2 36411   1.0003  85.2197 0001528  26.8016  96.0544  1.00268889 58555
COMS 1                  
1 36744U 10032A   26059.90201251 -.00000361  00000+0  00000+0 0  9991
2 36744   4.5270  76.9233 0001157 260.8213 273.8375  1.00273164 50004
FENGYUN 3B              
1 37214U 10059A   26059.96886056  .00000080  00000+0  64865-4 0  9992
2 37214  98.9794 105.4531 0022883 131.8770 324.9448 14.14815253792123
SUOMI NPP               
1 37849U 11061A   26059.93262856  .00000101  00000+0  68696-4 0  9993
2 37849  98.7859   1.6054 0000516 311.6174  48.4957 14.19540643743086
METEOSAT-10 (MSG-3)     
1 38552U 12035B   26059.80537874 -.00000021  00000+0  00000+0 0  9990
2 38552   4.4150  61.4769 0002461 288.7724  98.5091  1.00276329 49772
METOP-B                 
1 38771U 12049A   26059.92773218  .00000136  00000+0  81949-4 0  9997
2 38771  98.6661 113.5148 0001306 313.1609  46.9459 14.21441304697889
INSAT-3D                
1 39216U 13038B   26059.90227251 -.00000357  00000+0  00000+0 0  9990
2 39216   1.6462  83.9615 0002216 232.9377 296.0919  1.00269901 45999
FENGYUN 3C              
1 39260U 13052A   26059.91214987  .00000147  00000+0  96050-4 0  9999
2 39260  98.4877  38.8213 0014298 339.5433  20.5168 14.15725455643244
METEOR-M 2              
1 40069U 14037A   26059.95479252 -.00000085  00000+0 -19711-4 0  9996
2 40069  98.5007  39.5884 0005891   3.3769 356.7448 14.21423794603944
HIMAWARI-8              
1 40267U 14060A   26059.87191679 -.00000294  00000+0  00000+0 0  9994
2 40267   0.0127 125.1273 0000975 173.3971 314.6890  1.00270493 41679
FENGYUN 2G              
1 40367U 14090A   26059.96766462 -.00000319  00000+0  00000+0 0  9994
2 40367   5.3646  74.1261 0002088 153.4520  19.1786  1.00275686 40916
METEOSAT-11 (MSG-4)     
1 40732U 15034A   26059.94980675  .00000045  00000+0  00000+0 0  9996
2 40732   2.9288  71.7036 0001801 270.4333 168.0128  1.00265007  6130
ELEKTRO-L 2             
1 41105U 15074A   26059.87375905 -.00000134  00000+0  00000+0 0  9991
2 41105   6.4212  71.8541 0003500 233.5361 153.3370  1.00270686 37423
INSAT-3DR               
1 41752U 16054A   26059.96255126 -.00000095  00000+0  00000+0 0  9996
2 41752   0.0374  98.5167 0013505 182.7525 297.9801  1.00272004 34734
HIMAWARI-9              
1 41836U 16064A   26059.87191677 -.00000293  00000+0  00000+0 0  9990
2 41836   0.0229 204.7408 0001093 147.0288 261.5517  1.00273131 34120
GOES 16                 
1 41866U 16071A   26059.92727332 -.00000109  00000+0  00000+0 0  9996
2 41866   0.1382  90.3953 0002731 212.9643  84.4806  1.00271490 34012
FENGYUN 4A              
1 41882U 16077A   26059.90114583 -.00000375  00000+0  00000+0 0  9991
2 41882   2.0461  81.4628 0006410 133.8542  31.3430  1.00263182 33849
CYGFM05                 
1 41884U 16078A   26059.88749582  .00024731  00000+0  40243-3 0  9992
2 41884  34.9565 255.1580 0006614 208.3197 151.7167 15.51655853511898
CYGFM04                 
1 41885U 16078B   26059.89177647  .00065154  00000+0  93244-3 0  9994
2 41885  34.9314 227.5127 0005995 243.4716 116.5393 15.55013766512097
CYGFM02                 
1 41886U 16078C   26059.86935805  .00093210  00000+0  12377-2 0  9991
2 41886  34.9399 224.7456 0006976 242.3299 117.6718 15.56922455512233
CYGFM01                 
1 41887U 16078D   26059.91716065  .00026387  00000+0  42277-3 0  9997
2 41887  34.9395 256.7978 0006304 199.8608 160.1869 15.52079369511848
CYGFM08                 
1 41888U 16078E   26059.84136199  .00026993  00000+0  40985-3 0  9991
2 41888  34.9424 239.2772 0007910 224.6657 135.3430 15.53545023512075
CYGFM07                 
1 41890U 16078G   26059.87608370  .00029282  00000+0  43360-3 0  9996
2 41890  34.9440 227.5523 0006536 246.0318 113.9721 15.54230950512105
CYGFM03                 
1 41891U 16078H   26059.84716879  .00029692  00000+0  44178-3 0  9991
2 41891  34.9396 229.7221 0005751 230.3529 129.6687 15.54103356512073
FENGYUN 3D              
1 43010U 17072A   26059.96759422  .00000359  00000+0  19140-3 0  9995
2 43010  99.0008  32.5005 0001944  30.3748 329.7540 14.19712914429637
NOAA 20 (JPSS-1)        
1 43013U 17073A   26059.94725335  .00000084  00000+0  60549-4 0  9998
2 43013  98.7681   0.4219 0000805 148.0720 212.0505 14.19533438429116
GOES 17                 
1 43226U 18022A   26059.93022000 -.00000200  00000+0  00000+0 0  9999
2 43226   0.6589  87.6282 0002431 216.5133  99.9703  1.00270628 29331
FENGYUN 2H              
1 43491U 18050A   26059.96359126 -.00000145  00000+0  00000+0 0  9997
2 43491   2.7510  80.3943 0002078 172.9790 331.3323  1.00272565 28351
METOP-C                 
1 43689U 18087A   26059.88204740  .00000127  00000+0  77782-4 0  9993
2 43689  98.6785 121.4037 0002130 112.2550 247.8854 14.21493567379442
GEO-KOMPSAT-2A          
1 43823U 18100A   26059.50554706 -.00000362  00000+0  00000+0 0  9994
2 43823   0.0143  67.9082 0001217 328.9393  71.7104  1.00270672 26542
METEOR-M2 2             
1 44387U 19038A   26059.92383674  .00000237  00000+0  12259-3 0  9994
2 44387  98.9071  45.6552 0001332  19.5024 340.6205 14.24330280345884
ARKTIKA-M 1             
1 47719U 21016A   26057.83530105 -.00000162  00000+0  00000+0 0  9991
2 47719  63.2010  73.4350 7240849 269.4272  15.2104  2.00620804 36576
FENGYUN 3E              
1 49008U 21062A   26059.96408735 -.00000189  00000+0 -68261-4 0  9992
2 49008  98.7512  64.5758 0002524  58.1432 301.9990 14.19891987241225
GOES 18                 
1 51850U 22021A   26059.77822054  .00000079  00000+0  00000+0 0  9997
2 51850   0.0207  74.3594 0000613 306.1375 281.2344  1.00272882  5501
NOAA 21 (JPSS-2)        
1 54234U 22150A   26059.91157290  .00000067  00000+0  52789-4 0  9991
2 54234  98.7544   0.2786 0002427 122.5054 237.6357 14.19549339171183
METEOSAT-12 (MTG-I1)    
1 54743U 22170C   26059.94003086 -.00000025  00000+0  00000+0 0  9993
2 54743   0.7410  28.6101 0002012 278.2758 189.9547  1.00273985 11896
TIANMU-1 03             
1 55973U 23039A   26059.93578218  .00019409  00000+0  42995-3 0  9995
2 55973  97.5160 229.9615 0003932 126.3537 233.8074 15.43810090164118
TIANMU-1 04             
1 55974U 23039B   26059.96154841  .00019121  00000+0  41789-3 0  9992
2 55974  97.5092 229.1508 0004648 122.9899 237.1797 15.44212376164128
TIANMU-1 05             
1 55975U 23039C   26059.97685120  .00018691  00000+0  41497-3 0  9990
2 55975  97.5140 229.6584 0003610 144.3010 215.8480 15.43753396164104
TIANMU-1 06             
1 55976U 23039D   26059.96152047  .00019110  00000+0  41726-3 0  9999
2 55976  97.5149 230.1750 0003995 139.6044 220.5502 15.44243389164123
FENGYUN 3G              
1 56232U 23055A   26059.82589924  .00034634  00000+0  52971-3 0  9998
2 56232  49.9922 184.7683 0010655 333.8053  26.2374 15.53944544163169
METEOR-M2 3             
1 57166U 23091A   26059.96448686  .00000012  00000+0  24064-4 0  9995
2 57166  98.6234 117.0887 0004980 119.0945 241.0734 14.24036543139119
TIANMU-1 07             
1 57399U 23101A   26059.88136193  .00008181  00000+0  29144-3 0  9991
2 57399  97.2748 113.0254 0004700 152.8996 207.2491 15.29171304145096
TIANMU-1 08             
1 57400U 23101B   26059.91691160  .00000425  00000+0  17579-4 0  9991
2 57400  97.2734 112.8397 0006171 150.8236 209.3350 15.29180090145097
TIANMU-1 09             
1 57401U 23101C   26059.96365484  .00000657  00000+0  25764-4 0  9996
2 57401  97.2691 112.3663 0005015 157.5447 202.6014 15.29165756145102
TIANMU-1 10             
1 57402U 23101D   26059.93276075  .00008184  00000+0  29153-3 0  9999
2 57402  97.2775 113.2691 0006640 158.2373 201.9151 15.29164069145096
FENGYUN 3F              
1 57490U 23111A   26059.95016194  .00000084  00000+0  59873-4 0  9997
2 57490  98.6947 131.9338 0001373  83.5540 276.5793 14.19917009133509
ARKTIKA-M 2             
1 58584U 23198A   26059.09187419  .00000130  00000+0  00000+0 0  9996
2 58584  63.2197 166.4493 6876411 267.7961  18.8403  2.00614424 16132
TIANMU-1 11             
1 58645U 23205A   26059.95265623  .00007123  00000+0  28162-3 0  9994
2 58645  97.3555  83.2459 0010015  37.1370 323.0559 15.25737476121012
TIANMU-1 12             
1 58646U 23205B   26059.98464510  .00007138  00000+0  28302-3 0  9996
2 58646  97.3542  83.0586 0007832  24.2154 335.9451 15.25659979121001
TIANMU-1 13             
1 58647U 23205C   26060.01582534  .00007428  00000+0  29400-3 0  9992
2 58647  97.3570  83.3242 0007478   6.0178 354.1149 15.25709036121002
TIANMU-1 14             
1 58648U 23205D   26060.00026463  .00007636  00000+0  30228-3 0  9997
2 58648  97.3504  82.5858 0008394   8.9715 351.1672 15.25686747121001
TIANMU-1 19             
1 58660U 23208A   26059.96449834  .00010383  00000+0  36426-3 0  9997
2 58660  97.4380 175.9445 0004496 353.6339   6.4843 15.29611362120776
TIANMU-1 20             
1 58661U 23208B   26059.95558711  .00010830  00000+0  36604-3 0  9997
2 58661  97.4319 176.4605 0006855 358.8553   1.2671 15.30801294120857
TIANMU-1 21             
1 58662U 23208C   26059.96545535  .00012575  00000+0  39930-3 0  9992
2 58662  97.4372 178.7119 0006588 352.4000   7.7141 15.32777031120971
TIANMU-1 22             
1 58663U 23208D   26059.91456426  .00010139  00000+0  35982-3 0  9995
2 58663  97.4376 175.9114 0003809  24.7085 335.4336 15.29243149120774
TIANMU-1 15             
1 58700U 24004A   26059.93242846  .00007409  00000+0  29359-3 0  9990
2 58700  97.4663 246.1835 0007377  20.3318 339.8212 15.25677843119262
TIANMU-1 16             
1 58701U 24004B   26059.98168900  .00007560  00000+0  29927-3 0  9993
2 58701  97.4603 245.5621 0005900  25.6183 334.5346 15.25711711119275
TIANMU-1 17             
1 58702U 24004C   26059.96422613  .00007198  00000+0  28480-3 0  9996
2 58702  97.4636 245.9942 0005119  28.8413 331.3107 15.25748509119269
TIANMU-1 18             
1 58703U 24004D   26059.94910470  .00007051  00000+0  27949-3 0  9995
2 58703  97.4653 246.1891 0004538  29.8118 330.3378 15.25699858119263
INSAT-3DS               
1 58990U 24033A   26059.96419794 -.00000174  00000+0  00000+0 0  9995
2 58990   0.0639 266.3173 0002283  84.8351 236.7946  1.00270417 45988
METEOR-M2 4             
1 59051U 24039A   26059.99698594  .00000034  00000+0  34685-4 0  9995
2 59051  98.6889  20.7280 0007982 118.2865 241.9119 14.22415553103885
GOES 19                 
1 60133U 24119A   26059.93308001 -.00000266  00000+0  00000+0 0  9999
2 60133   0.0060 274.6322 0001025  94.9663  49.8305  1.00270307  5871
FENGYUN 3H              
1 65815U 25219A   26059.94648458  .00000089  00000+0  62447-4 0  9997
2 65815  98.6674   2.8758 0001459  67.5188 292.6143 14.19929843 22024
